{"type": "FeatureCollection", "features": [{"type": "Feature", "geometry": {"type": "Point", "coordinates": [53.41065, -2.9847]}, "properties": {"name": "LJMU Henry Cotton", "device_id": "f008d1cb8d70", "status": "active", "date_from": "2021-11", "date_to": "2025-04", "is_final": true}}, {"type": "Feature", "geometry": {"type": "Point", "coordinates": [-2.989633, 53.402436]}, "properties": {"name": "Strand Chavasse Park", "device_id": "70b3d54994bcb5c3", "status": "active", "is_final": false}}, {"type": "Feature", "geometry": {"type": "Point", "coordinates": [-2.98228, 53.4073]}, "properties": {"name": "Williamson Sq.", "device_id": "f008d1cbc690", "status": "active", "is_final": false}}, {"type": "Feature", "geometry": {"type": "Point", "coordinates": [-2.96438, 53.4053]}, "properties": {"name": "UoL Maths Building", "device_id": "f008d1cbc6b8", "status": "active", "is_final": false}}, {"type": "Feature", "geometry": {"type": "Point", "coordinates": [-2.98273, 53.40777]}, "properties": {"name": "Queens Square", "device_id": "f008d1cbc8f8", "status": "active", "is_final": false}}, {"type": "Feature", "geometry": {"type": "Point", "coordinates": [53.45355, -2.99147]}, "properties": {"name": "Regenerus", "device_id": "f008d1cbcec8", "status": "active", "is_final": false}}, {"type": "Feature", "geometry": {"type": "Point", "coordinates": [53.37622, -2.95428]}, "properties": {"name": "St Michaels station", "device_id": "f008d1cbcfd4", "status": "active", "is_final": false}}, {"type": "Feature", "geometry": {"type": "Point", "coordinates": [53.39918, -2.9223]}, "properties": {"name": "Wavertree RELOVED", "device_id": "f008d1cbd13c", "status": "active", "is_final": false}}, {"type": "Feature", "geometry": {"type": "Point", "coordinates": [53.39054, -2.9208]}, "properties": {"name": "Winchfield Road", "device_id": "f008d1cbec8c", "status": "active", "is_final": false}}, {"type": "Feature", "geometry": {"type": "Point", "coordinates": [-2.99453, 53.40089]}, "properties": {"name": "Liverpool Tate", "device_id": "f008d1cc11c4", "status": "active", "is_final": false}}, {"type": "Feature", "geometry": {"type": "Point", "coordinates": [53.34634, -2.84434]}, "properties": {"name": "Speke DEFRA", "device_id": "f008d1ccc974", "status": "active", "is_final": false}}, {"type": "Feature", "geometry": {"type": "Point", "coordinates": [-2.92558, 53.36409]}, "properties": {"name": "Aigburth station", "device_id": "f008d1ccdf18", "status": "active", "is_final": false}}, {"type": "Feature", "geometry": {"type": "Point", "coordinates": [-2.95712, 53.38522]}, "properties": {"name": "Belvedere Academy", "device_id": "f008d1cbc6cc", "status": "active", "is_final": false}}, {"type": "Feature", "geometry": {"type": "Point", "coordinates": [53.451742, -2.993371]}, "properties": {"name": "Bootle Shopping Centre", "device_id": "f008d1cc6928", "status": "active", "is_final": false}}, {"type": "Feature", "geometry": {"type": "Point", "coordinates": [53.452963, -2.993633]}, "properties": {"name": "Bootle Bus Station", "device_id": "f008d1ccc208", "status": "active", "is_final": false}}, {"type": "Feature", "geometry": {"type": "Point", "coordinates": [53.44333563504097, -3.00161827536728]}, "properties": {"name": "Alexandra Dock", "device_id": "f008d1cccde4", "status": "active", "is_final": true}}, {"type": "Feature", "geometry": {"type": "Point", "coordinates": [53.43196075525223, -2.990768372957624]}, "properties": {"name": "The Climbing Hangar Sandhills", "device_id": "f008d1cc6f1c", "status": "active", "is_final": true}}, {"type": "Feature", "geometry": {"type": "Point", "coordinates": [53.41830271497973, -2.999864196618489]}, "properties": {"name": "Invisible Wind Factory", "device_id": "f008d1cbd4d8", "status": "active", "is_final": true}}, {"type": "Feature", "geometry": {"type": "Point", "coordinates": [53.41718558197838, -2.9782101115738446]}, "properties": {"name": "St Annes St (Kingsway tunnel)", "device_id": "f008d1cbc694", "status": "active", "is_final": true}}, {"type": "Feature", "geometry": {"type": "Point", "coordinates": [53.4246089231899, -2.954247770328582]}, "properties": {"name": "Belmont Rd", "device_id": "f008d1cbc5dc", "status": "active", "is_final": true}}, {"type": "Feature", "geometry": {"type": "Point", "coordinates": [-2.9443001161037707, 53.41758087345246]}, "properties": {"name": "St Francis Academy", "device_id": "f008d1ccc158", "status": "active", "is_final": false}}, {"type": "Feature", "geometry": {"type": "Point", "coordinates": [53.40307329316595, -2.9394591122086]}, "properties": {"name": "Picton Rd", "device_id": "f008d1ccc1d8", "status": "active", "is_final": true}}, {"type": "Feature", "geometry": {"type": "Point", "coordinates": [-2.9434601632781376, 53.38890325843534]}, "properties": {"name": "Croxteth Rd", "device_id": "f008d1cbdc04", "status": "active", "is_final": false}}, {"type": "Feature", "geometry": {"type": "Point", "coordinates": [53.39391596575848, -2.9826535516203734]}, "properties": {"name": "Queens Dock", "device_id": "f008d1ccc1f0", "status": "active", "is_final": true}}, {"type": "Feature", "geometry": {"type": "Point", "coordinates": [-2.9665883, 53.4217171]}, "properties": {"name": "Heyworth Street (Everton)", "device_id": "f008d1cbc62c", "status": "active", "is_final": false}}, {"type": "Feature", "geometry": {"type": "Point", "coordinates": [-3.0007039, 53.4352616]}, "properties": {"name": "Regent Rd (Bankfield St)", "device_id": "f008d1cbc66c", "status": "active", "is_final": false}}, {"type": "Feature", "geometry": {"type": "Point", "coordinates": [-2.9688021, 53.4388631]}, "properties": {"name": "Spellow Ln (Goodison Park)", "device_id": "f008d1cccd9c", "status": "active", "is_final": false}}, {"type": "Feature", "geometry": {"type": "Point", "coordinates": [-2.946697, 53.4238151]}, "properties": {"name": "West Derby Road", "device_id": "f008d1cccd88", "status": "active", "is_final": false}}, {"type": "Feature", "geometry": {"type": "Point", "coordinates": [-2.8729787, 53.4029232]}, "properties": {"name": "Childwall Valley Rd", "device_id": "f008d1cc40dc", "status": "active", "is_final": false}}, {"type": "Feature", "geometry": {"type": "Point", "coordinates": [-2.9672864, 53.4435155]}, "properties": {"name": "County Rd", "device_id": "f008d1cbc5a0", "status": "active", "is_final": false}}, {"type": "Feature", "geometry": {"type": "Point", "coordinates": [-2.88225861177063, 53.4195392284359]}, "properties": {"name": "10A Prescot Road (Dovecot)", "device_id": "3933383534373238", "status": "active", "is_final": false}}, {"type": "Feature", "geometry": {"type": "Point", "coordinates": [-2.93504953982964, 53.4140156373532]}, "properties": {"name": "10A Prescot Road (Newsham Park)", "device_id": "3933383535393439", "status": "active", "is_final": false}}, {"type": "Feature", "geometry": {"type": "Point", "coordinates": [-2.94928918620612, 53.4121629236496]}, "properties": {"name": "10A Kensington (Grantham St)", "device_id": "3933383535393536", "status": "active", "is_final": false}}, {"type": "Feature", "geometry": {"type": "Point", "coordinates": [-2.98143810173873, 53.4082279081731]}, "properties": {"name": "10A St Johns Ln", "device_id": "3933383534313831", "status": "active", "is_final": false}}, {"type": "Feature", "geometry": {"type": "Point", "coordinates": [-2.99038677542501, 53.4051692102174]}, "properties": {"name": "10A James Street", "device_id": "3933383534373130", "status": "active", "is_final": false}}, {"type": "Feature", "geometry": {"type": "Point", "coordinates": [-2.98903329571716, 53.4017883184429]}, "properties": {"name": "10A Liverpool One Bus Station", "device_id": "3933383536303533", "status": "active", "is_final": false}}, {"type": "Feature", "geometry": {"type": "Point", "coordinates": [-2.90136209747794, 53.4165740932686]}, "properties": {"name": "10A Prescot Road (Alder Hey)", "device_id": "3933383534323732", "status": "active", "is_final": false}}, {"type": "Feature", "geometry": {"type": "Point", "coordinates": [-2.92018859677134, 53.4154417902286]}, "properties": {"name": "10A Prescot Road (Green Ln)", "device_id": "3933383535313437", "status": "active", "is_final": false}}, {"type": "Feature", "geometry": {"type": "Point", "coordinates": [-2.96549292192078, 53.4106220541086]}, "properties": {"name": "10A Prescot St (Royal Hospital)", "device_id": "3933383535323935", "status": "active", "is_final": false}}, {"type": "Feature", "geometry": {"type": "Point", "coordinates": [-2.97657602438504, 53.4093773676293]}, "properties": {"name": "10A London Rd (Fraser St)", "device_id": "3933383534343437", "status": "active", "is_final": false}}, {"type": "Feature", "geometry": {"type": "Point", "coordinates": [-2.90233, 53.400349]}, "properties": {"name": "LCC001-Meadway", "device_id": "3933383535333934", "status": "active", "is_final": false}}, {"type": "Feature", "geometry": {"type": "Point", "coordinates": [-2.900857, 53.40065]}, "properties": {"name": "LCC002-Christ the King School", "device_id": "3933383536353930", "status": "active", "is_final": false}}, {"type": "Feature", "geometry": {"type": "Point", "coordinates": [-2.901165, 53.401002]}, "properties": {"name": "LCC003-Fieldway", "device_id": "3933383534343534", "status": "active", "is_final": false}}, {"type": "Feature", "geometry": {"type": "Point", "coordinates": [-2.923826, 53.41461]}, "properties": {"name": "LCC004-Church St (North)", "device_id": "3933383535363931", "status": "active", "is_final": false}}, {"type": "Feature", "geometry": {"type": "Point", "coordinates": [-2.923823, 53.413763]}, "properties": {"name": "LCC005-St Cuthberts School", "device_id": "3933383535323436", "status": "active", "is_final": false}}, {"type": "Feature", "geometry": {"type": "Point", "coordinates": [-2.924017, 53.412478]}, "properties": {"name": "LCC006-Church Street (South)", "device_id": "3933383534383237", "status": "active", "is_final": false}}, {"type": "Feature", "geometry": {"type": "Point", "coordinates": [-2.953177, 53.427781]}, "properties": {"name": "25/07/24 A", "device_id": "3933383535333033", "status": "active", "is_final": false}}, {"type": "Feature", "geometry": {"type": "Point", "coordinates": [-2.903029, 53.429905]}, "properties": {"name": "25/07/24 B", "device_id": "3933383536313532", "status": "active", "is_final": false}}, {"type": "Feature", "geometry": {"type": "Point", "coordinates": [-2.902758, 53.429224]}, "properties": {"name": "25/07/24 C", "device_id": "3933383535353031", "status": "active", "is_final": false}}, {"type": "Feature", "geometry": {"type": "Point", "coordinates": [-2.837671, 53.388553]}, "properties": {"name": "25/07/24 D", "device_id": "3933383536353832", "status": "active", "is_final": false}}, {"type": "Feature", "geometry": {"type": "Point", "coordinates": [-2.862866, 53.376923]}, "properties": {"name": "29/07/24 E", "device_id": "3933383535313339", "status": "active", "is_final": false}}, {"type": "Feature", "geometry": {"type": "Point", "coordinates": [-2.904816, 53.360144]}, "properties": {"name": "LCC012-Gilmour Primary", "device_id": "3933383536333834", "status": "active", "is_final": false}}, {"type": "Feature", "geometry": {"type": "Point", "coordinates": [-2.9847, 53.41065]}, "properties": {"name": "Unknown", "device_id": "", "status": "candidate", "is_final": false}}, {"type": "Feature", "geometry": {"type": "Point", "coordinates": [53.40878, -2.98398]}, "properties": {"name": "Old Haymarket", "device_id": "f008d1cb9af0", "status": "candidate", "date_from": "2021-10", "date_to": "2025-04", "is_final": true}}, {"type": "Feature", "geometry": {"type": "Point", "coordinates": [53.40144, -2.96502]}, "properties": {"name": "Roxby Building", "device_id": "f008d1cbce64", "status": "candidate", "date_from": "2021-10", "date_to": "2025-04", "is_final": true}}, {"type": "Feature", "geometry": {"type": "Point", "coordinates": [53.40413, -2.97904]}, "properties": {"name": "Liverpool Central station", "device_id": "f008d1cbcecc", "status": "candidate", "date_from": "2021-10", "date_to": "2025-04", "is_final": true}}, {"type": "Feature", "geometry": {"type": "Point", "coordinates": [53.38313, -2.97618]}, "properties": {"name": "Brunswick station", "device_id": "f008d1cbd028", "status": "candidate", "date_from": "2021-10", "date_to": "2025-04", "is_final": true}}, {"type": "Feature", "geometry": {"type": "Point", "coordinates": [53.3515, -2.88686]}, "properties": {"name": "Garston", "device_id": "f008d1cbd07c", "status": "candidate", "date_from": "2021-11", "date_to": "2025-03", "is_final": true}}, {"type": "Feature", "geometry": {"type": "Point", "coordinates": [53.40541, -2.97141]}, "properties": {"name": "St Nicholas Catholic Primary School", "device_id": "f008d1cbdea4", "status": "candidate", "date_from": "2021-10", "date_to": "2025-04", "is_final": true}}, {"type": "Feature", "geometry": {"type": "Point", "coordinates": [53.43118, -2.97279]}, "properties": {"name": "Everton Valley", "device_id": "f008d1cbdef0", "status": "candidate", "date_from": "2021-11", "date_to": "2025-03", "is_final": true}}, {"type": "Feature", "geometry": {"type": "Point", "coordinates": [53.43275, -2.95459]}, "properties": {"name": "Anfield", "device_id": "f008d1cbfef4", "status": "candidate", "date_from": "2021-11", "date_to": "2025-04", "is_final": true}}, {"type": "Feature", "geometry": {"type": "Point", "coordinates": [53.40692, -2.96291]}, "properties": {"name": "Life Sciences Building", "device_id": "f008d1cc02a4", "status": "candidate", "date_from": "2021-10", "date_to": "2025-04", "is_final": true}}, {"type": "Feature", "geometry": {"type": "Point", "coordinates": [53.4397, -2.98279]}, "properties": {"name": "Kirkdale station", "device_id": "f008d1cc04ec", "status": "candidate", "date_from": "2021-10", "date_to": "2025-04", "is_final": true}}, {"type": "Feature", "geometry": {"type": "Point", "coordinates": [53.45565, -2.99796]}, "properties": {"name": "All Saints Primary", "device_id": "f008d1cc1110", "status": "candidate", "date_from": "2021-10", "date_to": "2025-03", "is_final": false}}, {"type": "Feature", "geometry": {"type": "Point", "coordinates": [-2.9089, 53.4075]}, "properties": {"name": "Old Swan", "device_id": "f008d1ccdf20", "status": "candidate", "date_from": "2021-11", "date_to": "2025-03", "is_final": false}}, {"type": "Feature", "geometry": {"type": "Point", "coordinates": [53.37875, -2.96377]}, "properties": {"name": "Dingle Rd", "device_id": "f008d1ccc0c4", "status": "candidate", "date_from": "2021-03", "date_to": "2025-04", "is_final": true}}, {"type": "Feature", "geometry": {"type": "Point", "coordinates": [53.40089, -2.99453]}, "properties": {"name": "Liverpool Tate", "device_id": "f008d1cc0c20", "status": "candidate", "date_from": "2021-10", "date_to": "2025-04", "is_final": true}}, {"type": "Feature", "geometry": {"type": "Point", "coordinates": [-2.9509763877052286, 53.39879399588971]}, "properties": {"name": "Smithdown Ln", "device_id": "f008d1ccc15c", "status": "candidate", "date_from": "2021-08", "date_to": "2025-04", "is_final": false}}]}